OBJECT_NAME,OBJECT_ID,EPOCH,MEAN_MOTION,ECCENTRICITY,INCLINATION,RA_OF_ASC_NODE,ARG_OF_PERICENTER,MEAN_ANOMALY,EPHEMERIS_TYPE,CLASSIFICATION_TYPE,NORAD_CAT_ID,ELEMENT_SET_NO,REV_AT_EPOCH,BSTAR,MEAN_MOTION_DOT,MEAN_MOTION_DDOT
OCEANSAT-2,2009-051A,2026-06-07T21:45:12.712896,13.99663923,.0014621,98.2330,146.6836,264.4649,95.4850,0,U,35931,999,87803,.1075E-3,.12E-5,0
WORLDVIEW-2 (WV-2),2009-055A,2026-06-07T18:28:19.684992,14.37896821,.0003237,98.4736,232.3489,242.6024,117.4834,0,U,35946,999,87429,.62433E-4,.145E-5,0
SMOS,2009-059A,2026-06-07T19:22:57.165312,14.39767757,.0001341,98.4427,346.2801,89.8623,270.2719,0,U,36036,999,87210,.10823E-3,.296E-5,0
YAOGAN-7,2009-069A,2026-06-07T16:17:05.221824,14.78000797,.0025952,98.0083,44.6039,71.0477,289.3543,0,U,36110,999,88822,.92971E-4,.621E-5,0
TANDEM-X,2010-030A,2026-06-07T12:13:05.205792,15.19145306,.0001847,97.4409,166.3531,77.0433,283.1008,0,U,36605,999,88517,.51145E-4,.1007E-4,0
CARTOSAT-2B,2010-035A,2026-06-07T20:46:51.170592,14.78649877,.0010417,97.9953,209.4748,215.7388,144.3126,0,U,36795,999,85847,.9882E-4,.672E-5,0
YAOGAN-10,2010-038A,2026-06-07T20:38:36.260160,14.85322323,.000172,97.8982,182.3392,88.4987,13.2033,0,U,36834,999,85582,.23538E-3,.1969E-4,0
COSMO-SKYMED 4,2010-060A,2026-06-07T20:34:24.964896,14.82161260,.0001401,97.8888,342.5923,84.3104,275.8269,0,U,37216,999,84318,.4662E-4,.319E-5,0
RESOURCESAT-2,2011-015A,2026-06-07T19:09:50.215968,14.21604531,.0010136,98.7645,226.3048,285.8696,74.1364,0,U,37387,999,78484,.59116E-4,.85E-6,0
HAIYANG-2A,2011-043A,2026-06-07T20:47:31.082208,13.74549203,.0006276,99.3397,161.7479,109.9417,250.2409,0,U,37781,999,74537,-.11488E-3,-.152E-5,0
RASAT,2011-044D,2026-06-07T20:31:54.571008,14.68157638,.0019486,98.0568,250.3947,219.4508,281.4401,0,U,37791,999,79181,.88259E-4,.46E-5,0
SRMSAT,2011-058D,2026-06-06T06:31:30.735264,14.11573396,.00119474,19.9704,125.5359,84.3565,18.6414,0,U,37841,999,75627,.65061068E-4,.385E-5,0
PLEIADES 1A,2011-076F,2026-06-07T21:04:00.795072,14.58565176,.000151,98.1972,234.1052,97.3960,34.0764,0,U,38012,999,77063,.7254E-4,.292E-5,0
ZIYUAN 1-02C (ZY 1-02C),2011-079A,2026-06-07T21:32:16.224864,14.38207165,.0006126,98.4068,226.3998,347.5969,101.2583,0,U,38038,999,75787,.13853E-3,.378E-5,0
ARIRANG-3 (KOMPSAT-3),2012-025B,2026-06-07T20:42:41.895360,14.62198560,.0006273,98.1172,116.4842,133.3536,226.8189,0,U,38338,999,74998,.11871E-3,.551E-5,0
EXACTVIEW-1 (ADS-1B),2012-039C,2026-06-07T18:16:48.960192,14.24981939,.0010649,98.9767,275.9395,193.2576,166.8324,0,U,38709,999,72136,.81611E-4,.145E-5,0
SPOT 6,2012-047A,2026-06-07T19:11:11.643648,14.58557280,.0001444,98.2116,226.2178,92.5705,267.5660,0,U,38755,999,73168,.66779E-4,.265E-5,0
PLEIADES 1B,2012-068A,2026-06-07T19:38:24.576000,14.58554885,.0001574,98.1942,233.9987,94.6896,265.4483,0,U,39019,999,71948,.80403E-4,.328E-5,0
GOKTURK 2,2012-073A,2026-06-07T20:35:48.117120,14.75534885,.0001913,97.6825,356.7571,61.1248,299.0154,0,U,39030,999,72313,.12474E-3,.802E-5,0
LANDSAT 8,2013-008A,2026-06-07T18:06:09.239040,14.57112840,.0001467,98.2302,229.0012,96.0673,264.0693,0,U,39084,999,69652,.96969E-4,.391E-5,0
SARAL,2013-009A,2026-06-07T18:04:55.865568,14.32853725,.0001239,98.5558,345.4404,353.8999,6.2170,0,U,39086,999,69425,.54342E-4,.105E-5,0
GAOFEN-1,2013-018A,2026-06-07T18:41:34.957248,14.76526631,.0015917,97.9091,231.0378,299.8820,60.0808,0,U,39150,999,70685,.50569E-4,.302E-5,0
VNREDSAT 1,2013-021B,2026-06-07T20:49:14.793312,14.64847183,.00017,97.9081,212.6413,90.6787,269.4612,0,U,39160,999,69892,.11535E-3,.571E-5,0
ARIRANG-5 (KOMPSAT-5),2013-042A,2026-06-07T20:30:53.296992,15.04557028,.0004125,97.6215,345.6867,143.8029,216.3476,0,U,39227,999,70245,.16992E-3,.2322E-4,0
SKYSAT-A,2013-066C,2026-06-07T16:00:58.214016,15.12925412,.0020998,97.3818,208.3680,351.8354,8.2532,0,U,39418,999,68704,.21023E-3,.3658E-4,0
DUBAISAT-2,2013-066D,2026-06-07T20:39:14.874048,15.10110954,.0012839,97.4564,149.2501,68.7793,291.4807,0,U,39419,999,68498,.27715E-3,.4462E-4,0
GPM-CORE,2014-009C,2026-06-07T19:44:00.743712,15.45438542,.0012069,64.9731,339.5013,269.8998,90.0760,0,U,39574,999,69636,.15679E-3,.7311E-4,0
SENTINEL-1A,2014-016A,2026-06-07T21:42:41.205312,14.59199709,.0001434,98.1782,166.5731,81.3371,278.7991,0,U,39634,999,64866,.26901E-4,.81E-6,0
KAZEOSAT 1,2014-024A,2026-06-07T19:02:40.811424,14.42076396,.0001493,98.3201,231.4740,74.2100,285.9255,0,U,39731,999,63720,.6572E-4,.173E-5,0
ALOS-2,2014-029A,2026-06-07T19:20:23.884800,14.79469663,.0001665,97.9210,256.1040,89.7532,270.3870,0,U,39766,999,65019,.17728E-3,.1273E-4,0
KAZEOSAT 2,2014-033A,2026-06-07T19:11:22.178400,14.85461675,.0008819,97.5414,358.9072,1.4252,358.6988,0,U,40010,999,64756,.129E-3,.1063E-4,0
