OCEANSAT-2              
1 35931U 09051A   26158.90639714  .00000120  00000+0  10750-3 0  9995
2 35931  98.2330 146.6836 0014621 264.4649  95.4850 13.99663923878039
WORLDVIEW-2 (WV-2)      
1 35946U 09055A   26158.76967228  .00000145  00000+0  62433-4 0  9996
2 35946  98.4736 232.3489 0003237 242.6024 117.4834 14.37896821874299
SMOS                    
1 36036U 09059A   26158.80760608  .00000296  00000+0  10823-3 0  9991
2 36036  98.4427 346.2801 0001341  89.8623 270.2719 14.39767757872105
YAOGAN-7                
1 36110U 09069A   26158.67853266  .00000621  00000+0  92971-4 0  9990
2 36110  98.0083  44.6039 0025952  71.0477 289.3543 14.78000797888221
TANDEM-X                
1 36605U 10030A   26158.50908803  .00001007  00000+0  51145-4 0  9996
2 36605  97.4409 166.3531 0001847  77.0433 283.1008 15.19145306885170
CARTOSAT-2B             
1 36795U 10035A   26158.86587003  .00000672  00000+0  98820-4 0  9993
2 36795  97.9953 209.4748 0010417 215.7388 144.3126 14.78649877858479
YAOGAN-10               
1 36834U 10038A   26158.86014190  .00001969  00000+0  23538-3 0  9995
2 36834  97.8982 182.3392 0001720  88.4987  13.2033 14.85322323855824
COSMO-SKYMED 4          
1 37216U 10060A   26158.85723339  .00000319  00000+0  46620-4 0  9992
2 37216  97.8888 342.5923 0001401  84.3104 275.8269 14.82161260843187
RESOURCESAT-2           
1 37387U 11015A   26158.79849787  .00000085  00000+0  59116-4 0  9995
2 37387  98.7645 226.3048 0010136 285.8696  74.1364 14.21604531784842
HAIYANG-2A              
1 37781U 11043A   26158.86633197 -.00000152  00000+0 -11488-3 0  9994
2 37781  99.3397 161.7479 0006276 109.9417 250.2409 13.74549203745371
RASAT                   
1 37791U 11044D   26158.85549272  .00000460  00000+0  88259-4 0  9996
2 37791  98.0568 250.3947 0019486 219.4508 281.4401 14.68157638791817
SRMSAT                  
1 37841U 11058D   26157.27188351  .00000385  00000+0  65061-4 0  9991
2 37841  19.9704 125.5359 0011947  84.3565  18.6414 14.11573396756279
PLEIADES 1A             
1 38012U 11076F   26158.87778698  .00000292  00000+0  72540-4 0  9995
2 38012  98.1972 234.1052 0001510  97.3960  34.0764 14.58565176770635
ZIYUAN 1-02C (ZY 1-02C) 
1 38038U 11079A   26158.89741001  .00000378  00000+0  13853-3 0  9992
2 38038  98.4068 226.3998 0006126 347.5969 101.2583 14.38207165757877
ARIRANG-3 (KOMPSAT-3)   
1 38338U 12025B   26158.86298490  .00000551  00000+0  11871-3 0  9994
2 38338  98.1172 116.4842 0006273 133.3536 226.8189 14.62198560749988
EXACTVIEW-1 (ADS-1B)    
1 38709U 12039C   26158.76167778  .00000145  00000+0  81611-4 0  9993
2 38709  98.9767 275.9395 0010649 193.2576 166.8324 14.24981939721367
SPOT 6                  
1 38755U 12047A   26158.79944032  .00000265  00000+0  66779-4 0  9993
2 38755  98.2116 226.2178 0001444  92.5705 267.5660 14.58557280731688
PLEIADES 1B             
1 39019U 12068A   26158.81834000  .00000328  00000+0  80403-4 0  9996
2 39019  98.1942 233.9987 0001574  94.6896 265.4483 14.58554885719481
GOKTURK 2               
1 39030U 12073A   26158.85819580  .00000802  00000+0  12474-3 0  9994
2 39030  97.6825 356.7571 0001913  61.1248 299.0154 14.75534885723130
LANDSAT 8               
1 39084U 13008A   26158.75427360  .00000391  00000+0  96969-4 0  9997
2 39084  98.2302 229.0012 0001467  96.0673 264.0693 14.57112840696526
SARAL                   
1 39086U 13009A   26158.75342437  .00000105  00000+0  54342-4 0  9993
2 39086  98.5558 345.4404 0001239 353.8999   6.2170 14.32853725694255
GAOFEN-1                
1 39150U 13018A   26158.77887682  .00000302  00000+0  50569-4 0  9999
2 39150  97.9091 231.0378 0015917 299.8820  60.0808 14.76526631706859
VNREDSAT 1              
1 39160U 13021B   26158.86753233  .00000571  00000+0  11535-3 0  9995
2 39160  97.9081 212.6413 0001700  90.6787 269.4612 14.64847183698929
ARIRANG-5 (KOMPSAT-5)   
1 39227U 13042A   26158.85478353  .00002322  00000+0  16992-3 0  9996
2 39227  97.6215 345.6867 0004125 143.8029 216.3476 15.04557028702457
SKYSAT-A                
1 39418U 13066C   26158.66734044  .00003658  00000+0  21023-3 0  9999
2 39418  97.3818 208.3680 0020998 351.8354   8.2532 15.12925412687044
DUBAISAT-2              
1 39419U 13066D   26158.86058882  .00004462  00000+0  27715-3 0  9999
2 39419  97.4564 149.2501 0012839  68.7793 291.4807 15.10110954684981
GPM-CORE                
1 39574U 14009C   26158.82223083  .00007311  00000+0  15679-3 0  9994
2 39574  64.9731 339.5013 0012069 269.8998  90.0760 15.45438542696366
SENTINEL-1A             
1 39634U 14016A   26158.90464358  .00000081  00000+0  26901-4 0  9998
2 39634  98.1782 166.5731 0001434  81.3371 278.7991 14.59199709648663
KAZEOSAT 1              
1 39731U 14024A   26158.79352791  .00000173  00000+0  65720-4 0  9993
2 39731  98.3201 231.4740 0001493  74.2100 285.9255 14.42076396637206
ALOS-2                  
1 39766U 14029A   26158.80583200  .00001273  00000+0  17728-3 0  9995
2 39766  97.9210 256.1040 0001665  89.7532 270.3870 14.79469663650194
KAZEOSAT 2              
1 40010U 14033A   26158.79956225  .00001063  00000+0  12900-3 0  9997
2 40010  97.5414 358.9072 0008819   1.4252 358.6988 14.85461675647563
